[{"OBJECT_NAME":"JY1SAT (JO-97)","OBJECT_ID":"2018-099AX","EPOCH":"2026-03-09T16:28:19.890048","MEAN_MOTION":15.30302629,"ECCENTRICITY":0.00047232,"INCLINATION":97.4249,"RA_OF_ASC_NODE":131.3625,"ARG_OF_PERICENTER":256.6795,"MEAN_ANOMALY":103.3919,"EPHEMERIS_TYPE":0,"CLASSIFICATION_TYPE":"U","NORAD_CAT_ID":43803,"ELEMENT_SET_NO":999,"REV_AT_EPOCH":39839,"BSTAR":0.00060804308,"MEAN_MOTION_DOT":0.00017774,"MEAN_MOTION_DDOT":0},{"OBJECT_NAME":"STARLINK-35712","OBJECT_ID":"2025-244K","EPOCH":"2026-03-09T18:18:22.937472","MEAN_MOTION":15.30192577,"ECCENTRICITY":2.901e-5,"INCLINATION":53.1612,"RA_OF_ASC_NODE":229.3588,"ARG_OF_PERICENTER":142.6213,"MEAN_ANOMALY":217.4808,"EPHEMERIS_TYPE":0,"CLASSIFICATION_TYPE":"U","NORAD_CAT_ID":66215,"ELEMENT_SET_NO":999,"REV_AT_EPOCH":2167,"BSTAR":0.00047189953,"MEAN_MOTION_DOT":0.0001364,"MEAN_MOTION_DDOT":0}]
